[{"OBJECT_NAME":"BISONSAT","OBJECT_ID":"2015-058L","EPOCH":"2026-03-09T11:49:35.353056","MEAN_MOTION":15.13791398,"ECCENTRICITY":0.00792382,"INCLINATION":64.7598,"RA_OF_ASC_NODE":135.3937,"ARG_OF_PERICENTER":90.6713,"MEAN_ANOMALY":270.349,"EPHEMERIS_TYPE":0,"CLASSIFICATION_TYPE":"U","NORAD_CAT_ID":40974,"ELEMENT_SET_NO":999,"REV_AT_EPOCH":10051,"BSTAR":0.0006711096,"MEAN_MOTION_DOT":0.00012971,"MEAN_MOTION_DDOT":0},{"OBJECT_NAME":"STARLINK-34449","OBJECT_ID":"2025-130AD","EPOCH":"2026-03-09T10:38:58.042176","MEAN_MOTION":15.30167062,"ECCENTRICITY":0.00010965,"INCLINATION":53.1607,"RA_OF_ASC_NODE":89.7934,"ARG_OF_PERICENTER":84.6516,"MEAN_ANOMALY":275.461,"EPHEMERIS_TYPE":0,"CLASSIFICATION_TYPE":"U","NORAD_CAT_ID":64465,"ELEMENT_SET_NO":999,"REV_AT_EPOCH":4066,"BSTAR":0.0012260899,"MEAN_MOTION_DOT":0.00036093,"MEAN_MOTION_DDOT":0}]
